STARLINK-1902           
1 46763U 20074AA  21217.55926201  .00000752  00000-0  69354-4 0  9997
2 46763  53.0557 305.5399 0000900 122.8865 237.2211 15.06399328 43683
STARLINK-1903           
1 46764U 20074AB  21217.54083657 -.00000902  00000-0 -41660-4 0  9995
2 46764  53.0537 305.6432 0000928 117.1556 242.9528 15.06394794 43692
STARLINK-1906           
1 46765U 20074AC  21217.52977955 -.00001099  00000-0 -54907-4 0  9993
2 46765  53.0552 305.6687 0001049 105.2843 254.8262 15.06390587 43406
STARLINK-1916           
1 46766U 20074AD  21217.52240039 -.00000823  00000-0 -36372-4 0  9990
2 46766  53.0557 305.7282 0000932  94.4484 265.6611 15.06392345 43686
STARLINK-1917           
1 46767U 20074AE  21217.48554648 -.00000624  00000-0 -23026-4 0  9991
2 46767  53.0540 305.8938 0001103 107.8223 252.2887 15.06394833 43679
STARLINK-1918           
1 46768U 20074AF  21217.55558084 -.00001005  00000-0 -48618-4 0  9996
2 46768  53.0559 305.5609 0000900 119.7349 240.3729 15.06393914 43680
STARLINK-1919           
1 46769U 20074AG  21217.50765786  .00000823  00000-0  74109-4 0  9990
2 46769  53.0564 305.7922 0000974 114.2491 245.8600 15.06399953 43403
STARLINK-1932           
1 46770U 20074AH  21217.51039884 -.00000628  00000-0 -23314-4 0  9993
2 46770  53.0552 305.7742 0001032 124.7073 235.4013 15.06393656 43698
STARLINK-1935           
1 46771U 20074AJ  21217.41103216  .00494656  00000-0  16500-2 0  9997
2 46771  53.0538 276.7626 0007369 277.0738  82.9448 15.88428268 44078
STARLINK-1936           
1 46772U 20074AK  21217.49660547  .00000984  00000-0  84976-4 0  9992
2 46772  53.0548 305.8444 0000928 105.8646 254.2445 15.06391268 43699
STARLINK-1937           
1 46773U 20074AL  21217.53864657  .00214190  00000-0  10180-2 0  9996
2 46773  53.0508 278.0197 0008074 281.0555  78.9559 15.81748661 44074
STARLINK-1939           
1 46774U 20074AM  21217.54401189  .00001886  00000-0  14231-3 0  9993
2 46774  53.0546 305.1913 0000939 101.7497 258.3597 15.07256979 43697
STARLINK-1945           
1 46775U 20074AN  21217.53346324  .00000686  00000-0  64908-4 0  9996
2 46775  53.0567 305.6619 0001007 118.0330 242.0761 15.06395173 43673
STARLINK-1946           
1 46776U 20074AP  21217.51135131  .00001065  00000-0  90383-4 0  9995
2 46776  53.0549 305.7682 0000950 122.7799 237.3281 15.06392289 43367
STARLINK-1949           
1 46777U 20074AQ  21217.41042656 -.00011186  00000-0 -81087-4 0  9992
2 46777  53.0510 278.0445 0009210 349.4721  10.6102 15.71423599 44069
STARLINK-1798           
1 46779U 20074AS  21217.52654999 -.00000698  00000-0 -27991-4 0  9995
2 46779  53.0545 280.6927 0000772 118.9751 241.1316 15.06393906 44029
STARLINK-1832           
1 46780U 20074AT  21217.44914251 -.00001031  00000-0 -50391-4 0  9990
2 46780  53.0551 281.0389 0000577 115.5893 244.5156 15.06393222 44017
STARLINK-1834           
1 46781U 20074AU  21217.53298825  .00001338  00000-0  10868-3 0  9995
2 46781  53.0547 290.6749 0001012 122.1426 237.9662 15.06404155 43622
STARLINK-1835           
1 46782U 20074AV  21217.43807401  .00001212  00000-0  10018-3 0  9999
2 46782  53.0555 281.1042 0000601 108.8045 251.3009 15.06406801 44013
STARLINK-1851           
1 46783U 20074AW  21217.51918134  .00000507  00000-0  52960-4 0  9994
2 46783  53.0543 280.7160 0001009 110.7536 249.3561 15.06388397 43756
STARLINK-1882           
1 46784U 20074AX  21217.52286279 -.00000846  00000-0 -37935-4 0  9997
2 46784  53.0542 280.7054 0001034 110.1751 249.9350 15.06393713 43692
STARLINK-1883           
1 46785U 20074AY  21217.44178642  .00000354  00000-0  42808-4 0  9990
2 46785  53.0556 281.0778 0005984 354.6755   5.4170 15.06385874 44013
STARLINK-1893           
1 46786U 20074AZ  21217.88593832  .00000969  00000-0  84059-4 0  9997
2 46786  53.0466 259.1083 0006646 156.3885 203.7410 15.06401409 44367
STARLINK-1899           
1 46787U 20074BA  21217.81222612 -.00001327  00000-0 -70000-4 0  9998
2 46787  53.0427 259.4558 0007319  95.1794 265.0030 15.06389500 44357
STARLINK-1929           
1 46788U 20074BB  21217.40677057  .00000491  00000-0  52044-4 0  9998
2 46788  53.0540 261.2201 0008087 151.1503 208.9934 15.06394570 44299
STARLINK-1930           
1 46789U 20074BC  21217.54681506  .00000564  00000-0  56749-4 0  9995
2 46789  53.0538 290.6155 0000682 121.2952 238.8104 15.06396302 43891
STARLINK-1931           
1 46790U 20074BD  21217.45928530  .00001241  00000-0  10220-3 0  9994
2 46790  53.0551 290.9887 0000704 128.4691 231.6361 15.06396052 43873
STARLINK-1933           
1 46791U 20074BE  21217.54037566  .00000657  00000-0  62997-4 0  9994
2 46791  53.0555 290.6433 0000765 115.2015 244.9053 15.06401609 43895
STARLINK-1934           
1 46792U 20074BF  21217.50076298  .00000468  00000-0  50291-4 0  9990
2 46792  53.0556 280.8131 0000875 123.4788 236.6285 15.06387691 44028
STARLINK-1941           
1 46793U 20074BG  21217.46296285  .00000597  00000-0  58957-4 0  9996
2 46793  53.0542 290.9685 0000944 109.5562 250.5529 15.06400754 43876
STARLINK-1942           
1 46794U 20074BH  21217.53669443  .00001407  00000-0  11330-3 0  9999
2 46794  53.0544 290.6643 0000883 117.5188 242.5891 15.06397401 43568
STARLINK-1943           
1 46795U 20074BJ  21217.84682466  .00230273  00000-0  94598-2 0  9995
2 46795  53.0627 258.5125 0006566 273.0816  86.9429 15.22708422 44373
STARLINK-1944           
1 46796U 20074BK  21217.51182603  .00000452  00000-0  49221-4 0  9997
2 46796  53.0551 280.7572 0000939  84.2341 275.8755 15.06392065 43695
STARLINK-1947           
1 46797U 20074BL  21217.84540901  .00000389  00000-0  45196-4 0  9999
2 46797  53.0652 259.2210 0007427  88.8934 271.2906 15.06393450 44367
STARLINK-1948           
1 46798U 20074BM  21217.54356997 -.00000601  00000-0 -21487-4 0  9993
2 46798  53.0549 305.6318 0000885 114.6621 245.4460 15.06395906 43680
STARLINK-1777           
1 47122U 20088A   21217.43163635  .00000780  00000-0  71248-4 0  9999
2 47122  53.0535 271.1315 0000591 138.0796 222.0238 15.06400788 39031
STARLINK-1779           
1 47123U 20088B   21217.79835583  .00082168  13605-4  26687-3 0  9992
2 47123  53.0505 245.4113 0008049 273.3048  86.7057 15.90817366 39433
STARLINK-1785           
1 47124U 20088C   21217.55002527 -.00000596  00000-0 -21112-4 0  9998
2 47124  53.0551 275.6030 0000981 120.3706 239.7380 15.06390951 39282
STARLINK-1787           
1 47125U 20088D   21217.67339407 -.00000082  00000-0  40812-5 0  9990
2 47125  53.0504 198.2703 0007017 280.6630  79.3597 15.71427751 40080
STARLINK-1812           
1 47126U 20088E   21217.85552861  .00000592  00000-0  58603-4 0  9993
2 47126  53.0553 269.2234 0000752 114.5828 245.5240 15.06389136 39101
STARLINK-1836           
1 47127U 20088F   21217.82522739  .00220324  00000-0  41208-2 0  9990
2 47127  53.0545 221.5927 0007276 273.4651  86.5523 15.47404043 39770
STARLINK-1837           
1 47128U 20088G   21217.81312887  .00000381  00000-0  44621-4 0  9994
2 47128  53.0507 249.4110 0006135 257.6832 102.3471 15.06393462 39372
STARLINK-1838           
1 47129U 20088H   21217.84170455  .00000306  00000-0  39450-4 0  9992
2 47129  53.0536 259.2874 0000834  78.5085 281.5998 15.06394917 39247
STARLINK-1839           
1 47130U 20088J   21217.55972405  .00000783  00000-0  71413-4 0  9991
2 47130  53.0538 280.5498 0000694 132.4304 227.6743 15.06398458 38914
STARLINK-1840           
1 47131U 20088K   21217.78322841 -.00000130  00000-0  92052-5 0  9990
2 47131  53.0540 243.9267 0007215 353.5390   6.5510 15.17669414 39453
STARLINK-1843           
1 47133U 20088M   21217.83433255  .00000406  00000-0  46197-4 0  9993
2 47133  53.0550 259.4553 0002099  70.3628 289.7588 15.06395157 39233
STARLINK-1844           
1 47134U 20088N   21217.87393825  .00000595  00000-0  58956-4 0  9991
2 47134  53.0556 269.1400 0005958 201.3530 158.7211 15.06400863 39109
STARLINK-1845           
1 47135U 20088P   21217.82694927  .00000704  00000-0  66149-4 0  9999
2 47135  53.0534 259.3364 0000703 107.4117 252.6948 15.06400912 39236
STARLINK-1846           
1 47136U 20088Q   21217.49431818  .00000923  00000-0  80831-4 0  9998
2 47136  53.0530 270.8514 0000732 102.2112 257.8959 15.06393066 39047
STARLINK-1849           
1 47137U 20088R   21217.80854361  .00000707  00000-0  66378-4 0  9996
2 47137  53.0557 259.4284 0000775  95.4390 264.6687 15.06387731 39239
STARLINK-1850           
1 47138U 20088S   21217.84214733  .00001087  00000-0  91861-4 0  9991
2 47138  53.0531 264.2769 0000718 118.1592 241.9469 15.06391645 39176
STARLINK-1852           
1 47139U 20088T   21217.43946172  .00000639  00000-0  61784-4 0  9999
2 47139  53.0550 276.0842 0000817 115.7041 244.4033 15.06387016 38961
STARLINK-1853           
1 47140U 20088U   21217.83707014 -.00002520  00000-0 -48473-4 0  9998
2 47140  53.0528 265.4887 0001205  80.0241 280.0900 15.42157058 39159
STARLINK-1854           
1 47141U 20088V   21217.85267491 -.00000728  00000-0 -29174-4 0  9996
2 47141  53.0540 259.2068 0001150 102.8540 257.2578 15.07211469 39245
STARLINK-1855           
1 47142U 20088W   21217.35608780  .00049905  00000-0  21363-3 0  9991
2 47142  53.0540 256.6378 0007907 296.3042  63.7168 15.84607244 39232
STARLINK-1856           
1 47143U 20088X   21217.83064352 -.00001056  00000-0 -52040-4 0  9990
2 47143  53.0516 259.3225 0000575 113.9335 246.1714 15.06389834 39230
STARLINK-1857           
1 47144U 20088Y   21217.81682460  .00000412  00000-0  46538-4 0  9993
2 47144  53.0545 249.3850 0000551  95.7044 264.4008 15.06394630 39378
STARLINK-1858           
1 47145U 20088Z   21217.80942017 -.00010601  00000-0 -69263-3 0  9992
2 47145  53.0526 249.4231 0006393 258.3078 101.7194 15.06439909 39374
STARLINK-1859           
1 47146U 20088AA  21217.44083689  .00000757  00000-0  69723-4 0  9995
2 47146  53.0553 281.0758 0000817 117.4178 242.6894 15.06395349 38899
STARLINK-1860           
1 47147U 20088AB  21217.84077948 -.00001184  00000-0 -60644-4 0  9991
2 47147  53.0560 269.2898 0000395 117.0550 243.0479 15.06390663 39105
